NORAD_CAT_ID,OBJECT_NAME,OBJECT_TYPE,EPOCH,MEAN_MOTION,ECCENTRICITY,INCLINATION,RA_OF_ASC_NODE,ARG_OF_PERICENTER,MEAN_ANOMALY,BSTAR,MEAN_MOTION_DOT,MEAN_MOTION_DDOT,TLE_LINE0,TLE_LINE1,TLE_LINE2,SEMIMAJOR_AXIS,PERIOD,APOGEE,PERIGEE,DECAYED
49456.0,STARLINK-3124,PAYLOAD,2023-12-27 01:10:14,15.08863939,0.0001542,53.215,226.8547,82.4083,277.7084,0.00078593,0.0001225,0.0,0 STARLINK-3124,1 49456U 21104BA  23361.04877742  .00012250  00000-0  78593-3 0  9995,2 49456  53.2150 226.8547 0001542  82.4083 277.7084 15.08863939118521,6917.807,95.436,540.739,538.605,0.0
49456.0,STARLINK-3124,PAYLOAD,2023-12-27 18:39:28,15.08852421,0.0001904,53.2169,223.5756,146.4494,213.6619,-0.00038995,-6.491e-05,0.0,0 STARLINK-3124,1 49456U 21104BA  23361.77741340 -.00006491  00000-0 -38995-3 0  9993,2 49456  53.2169 223.5756 0001904 146.4494 213.6619 15.08852421118635,6917.842,95.437,541.025,538.39,0.0
49456.0,STARLINK-3124,PAYLOAD,2023-12-27 21:50:15,15.08848193,0.0001351,53.215,222.989,93.7362,266.3784,0.00019903,2.882e-05,0.0,0 STARLINK-3124,1 49456U 21104BA  23361.90989844  .00002882  00000-0  19903-3 0  9997,2 49456  53.2150 222.9890 0001351  93.7362 266.3784 15.08848193117583,6917.855,95.437,540.655,538.786,0.0
49456.0,STARLINK-3124,PAYLOAD,2023-12-28 20:05:39,15.08836102,0.0001372,53.2147,218.8257,97.4354,262.6794,7.242e-06,-1.73e-06,0.0,0 STARLINK-3124,1 49456U 21104BA  23362.83726361 -.00000173  00000-0  72420-5 0  9990,2 49456  53.2147 218.8257 0001372  97.4354 262.6794 15.08836102118796,6917.892,95.438,540.706,538.808,0.0
49456.0,STARLINK-3124,PAYLOAD,2023-12-29 19:56:26,15.08840959,0.0001332,53.2145,214.3651,100.1839,259.9303,0.00018509,2.659e-05,0.0,0 STARLINK-3124,1 49456U 21104BA  23363.83086440  .00002659  00000-0  18509-3 0  9994,2 49456  53.2145 214.3651 0001332 100.1839 259.9303 15.08840959117877,6917.877,95.437,540.664,538.821,0.0
49456.0,STARLINK-3124,PAYLOAD,2023-12-30 00:42:36,15.08842078,0.0001339,53.2144,213.4729,101.3603,258.754,0.00018414,2.644e-05,0.0,0 STARLINK-3124,1 49456U 21104BA  23364.02958379  .00002644  00000-0  18414-3 0  9994,2 49456  53.2144 213.4729 0001339 101.3603 258.7540 15.08842078118977,6917.874,95.437,540.665,538.813,0.0
49456.0,STARLINK-3124,PAYLOAD,2023-12-30 21:22:36,15.08841429,0.0001274,53.2146,209.6077,94.5937,265.5201,0.00012543,1.709e-05,0.0,0 STARLINK-3124,1 49456U 21104BA  23364.89070531  .00001709  00000-0  12543-3 0  9992,2 49456  53.2146 209.6077 0001274  94.5937 265.5201 15.08841429118039,6917.876,95.437,540.622,538.86,0.0
49456.0,STARLINK-3124,PAYLOAD,2023-12-31 21:13:24,15.08843763,0.0001303,53.2156,205.1468,96.7223,263.3918,8.7763e-05,1.109e-05,0.0,0 STARLINK-3124,1 49456U 21104BA  23365.88430564  .00001109  00000-0  87763-4 0  9999,2 49456  53.2156 205.1468 0001303  96.7223 263.3918 15.08843763118180,6917.869,95.437,540.635,538.832,0.0
49456.0,STARLINK-3124,PAYLOAD,2024-01-01 13:07:15,15.0884019,0.0001364,53.2155,202.1744,84.959,275.1558,8.9856e-05,1.142e-05,0.0,0 STARLINK-3124,1 49456U 21104BA  24001.54670869  .00001142  00000-0  89856-4 0  9996,2 49456  53.2155 202.1744 0001364  84.9590 275.1558 15.08840190118289,6917.88,95.438,540.688,538.801,0.0
49456.0,STARLINK-3124,PAYLOAD,2024-01-01 19:28:48,15.08840042,0.0001349,53.2155,200.9848,84.8227,275.2919,6.6864e-05,7.76e-06,0.0,0 STARLINK-3124,1 49456U 21104BA  24001.81166895  .00000776  00000-0  66864-4 0  9991,2 49456  53.2155 200.9848 0001349  84.8227 275.2919 15.08840042119390,6917.88,95.438,540.678,538.812,0.0
49456.0,STARLINK-3124,PAYLOAD,2024-01-02 12:58:02,15.08844915,0.0001329,53.2155,197.7133,88.2345,271.8799,9.7336e-05,1.262e-05,0.0,0 STARLINK-3124,1 49456U 21104BA  24002.54030441  .00001262  00000-0  97336-4 0  9998,2 49456  53.2155 197.7133 0001329  88.2345 271.8799 15.08844915118432,6917.865,95.437,540.65,538.811,0.0
49456.0,STARLINK-3124,PAYLOAD,2024-01-02 19:19:34,15.08846363,0.000134,53.2156,196.5238,87.3025,272.812,0.00010023,1.308e-05,0.0,0 STARLINK-3124,1 49456U 21104BA  24002.80526278  .00001308  00000-0  10023-3 0  9993,2 49456  53.2156 196.5238 0001340  87.3025 272.8120 15.08846363118476,6917.861,95.437,540.653,538.799,0.0
49456.0,STARLINK-3124,PAYLOAD,2024-01-03 12:48:49,15.08839528,0.0001407,53.2157,193.2534,74.5293,285.5855,5.7795e-05,6.32e-06,0.0,0 STARLINK-3124,1 49456U 21104BA  24003.53390811  .00000632  00000-0  57795-4 0  9993,2 49456  53.2157 193.2534 0001407  74.5293 285.5855 15.08839528118582,6917.882,95.438,540.72,538.773,0.0
49456.0,STARLINK-3124,PAYLOAD,2024-01-03 19:10:22,15.08838166,0.0001358,53.2158,192.0633,80.3728,279.7417,3.152e-05,2.14e-06,0.0,0 STARLINK-3124,1 49456U 21104BA  24003.79886898  .00000214  00000-0  31520-4 0  9990,2 49456  53.2158 192.0633 0001358  80.3728 279.7417 15.08838166119692,6917.886,95.438,540.69,538.812,0.0
49456.0,STARLINK-3124,PAYLOAD,2024-01-04 12:39:36,15.08841626,0.0001329,53.2158,188.7918,86.9538,273.1606,2.8804e-05,1.71e-06,0.0,0 STARLINK-3124,1 49456U 21104BA  24004.52750643  .00000171  00000-0  28804-4 0  9993,2 49456  53.2158 188.7918 0001329  86.9538 273.1606 15.08841626118736,6917.875,95.437,540.66,538.821,0.0
49456.0,STARLINK-3124,PAYLOAD,2024-01-04 19:01:08,15.08843124,0.0001323,53.2158,187.6022,87.9995,272.1148,3.7744e-05,3.13e-06,0.0,0 STARLINK-3124,1 49456U 21104BA  24004.79246473  .00000313  00000-0  37744-4 0  9994,2 49456  53.2158 187.6022 0001323  87.9995 272.1148 15.08843124118771,6917.871,95.437,540.651,538.821,0.0
49456.0,STARLINK-3124,PAYLOAD,2024-01-05 12:30:23,15.08834819,0.0001336,53.2159,184.3306,90.6502,269.4644,4.5267e-05,4.33e-06,0.0,0 STARLINK-3124,1 49456U 21104BA  24005.52111067  .00000433  00000-0  45267-4 0  9998,2 49456  53.2159 184.3306 0001336  90.6502 269.4644 15.08834819119952,6917.896,95.438,540.685,538.837,0.0
49456.0,STARLINK-3124,PAYLOAD,2024-01-05 17:16:33,15.08834871,0.0001302,53.216,183.4383,92.1558,267.9583,3.8141e-05,3.19e-06,0.0,0 STARLINK-3124,1 49456U 21104BA  24005.71983135  .00000319  00000-0  38141-4 0  9998,2 49456  53.2160 183.4383 0001302  92.1558 267.9583 15.08834871118918,6917.896,95.438,540.662,538.86,0.0
49456.0,STARLINK-3124,PAYLOAD,2024-01-06 12:21:11,15.08837124,0.0001288,53.2161,179.8701,91.0726,269.0414,2.4051e-05,9.5e-07,0.0,0 STARLINK-3124,1 49456U 21104BA  24006.51471277  .00000095  00000-0  24051-4 0  9992,2 49456  53.2161 179.8701 0001288  91.0726 269.0414 15.08837124119034,6917.889,95.438,540.645,538.863,0.0
49456.0,STARLINK-3124,PAYLOAD,2024-01-06 18:42:43,15.08837767,0.0001274,53.2161,178.6809,87.6666,272.4472,2.6282e-05,1.3e-06,0.0,0 STARLINK-3124,1 49456U 21104BA  24006.77967290  .00000130  00000-0  26282-4 0  9993,2 49456  53.2161 178.6809 0001274  87.6666 272.4472 15.08837767120148,6917.887,95.438,540.634,538.871,0.0
49456.0,STARLINK-3124,PAYLOAD,2024-01-06 21:53:29,15.08838037,0.0001281,53.2161,178.0862,89.0599,271.054,2.3945e-05,9.3e-07,0.0,0 STARLINK-3124,1 49456U 21104BA  24006.91215259  .00000093  00000-0  23945-4 0  9991,2 49456  53.2161 178.0862 0001281  89.0599 271.0540 15.08838037119094,6917.886,95.438,540.638,538.865,0.0
49456.0,STARLINK-3124,PAYLOAD,2024-01-07 13:47:21,15.08839308,0.0001243,53.2162,175.1125,88.5122,271.6012,8.8279e-05,1.117e-05,0.0,0 STARLINK-3124,1 49456U 21104BA  24007.57455138  .00001117  00000-0  88279-4 0  9995,2 49456  53.2162 175.1125 0001243  88.5122 271.6012 15.08839308119192,6917.883,95.438,540.607,538.888,0.0
49456.0,STARLINK-3124,PAYLOAD,2024-01-07 20:08:53,15.08842772,0.0001237,53.2163,173.923,88.9869,271.1265,0.00011214,1.497e-05,0.0,0 STARLINK-3124,1 49456U 21104BA  24007.83950885  .00001497  00000-0  11214-3 0  9998,2 49456  53.2163 173.9230 0001237  88.9869 271.1265 15.08842772120300,6917.872,95.437,540.593,538.881,0.0
49456.0,STARLINK-3124,PAYLOAD,2024-01-08 13:38:08,15.08841729,0.0001227,53.2161,170.6524,88.5971,271.5161,8.2513e-05,1.026e-05,0.0,0 STARLINK-3124,1 49456U 21104BA  24008.56815016  .00001026  00000-0  82513-4 0  9994,2 49456  53.2161 170.6524 0001227  88.5971 271.5161 15.08841729119349,6917.875,95.437,540.589,538.891,0.0
49456.0,STARLINK-3124,PAYLOAD,2024-01-08 18:24:17,15.08841382,0.000121,53.216,169.7607,86.9886,273.1245,7.4619e-05,9e-06,0.0,0 STARLINK-3124,1 49456U 21104BA  24008.76687055  .00000900  00000-0  74619-4 0  9994,2 49456  53.2160 169.7607 0001210  86.9886 273.1245 15.08841382119377,6917.876,95.437,540.578,538.904,0.0
49456.0,STARLINK-3124,PAYLOAD,2024-01-09 10:18:09,15.08837499,0.0001219,53.2157,166.7883,81.6936,278.4194,2.4605e-05,1.04e-06,0.0,0 STARLINK-3124,1 49456U 21104BA  24009.42927498  .00000104  00000-0  24605-4 0  9992,2 49456  53.2157 166.7883 0001219  81.6936 278.4194 15.08837499120549,6917.888,95.438,540.596,538.91,0.0
49456.0,STARLINK-3124,PAYLOAD,2024-01-09 13:28:55,15.08839873,0.0001195,53.2152,166.1946,82.4526,277.6602,2.7865e-05,1.56e-06,0.0,0 STARLINK-3124,1 49456U 21104BA  24009.56175328  .00000156  00000-0  27865-4 0  9992,2 49456  53.2152 166.1946 0001195  82.4526 277.6602 15.08839873119490,6917.881,95.438,540.572,538.919,0.0
49456.0,STARLINK-3124,PAYLOAD,2024-01-09 16:39:41,15.0884271,0.0001244,53.2153,165.6,77.1155,282.9976,3.2112e-05,2.23e-06,0.0,0 STARLINK-3124,1 49456U 21104BA  24009.69423146  .00000223  00000-0  32112-4 0  9996,2 49456  53.2153 165.6000 0001244  77.1155 282.9976 15.08842710119510,6917.872,95.437,540.598,538.877,0.0
49456.0,STARLINK-3124,PAYLOAD,2024-01-10 10:08:56,15.08841076,0.0001432,53.2153,162.3297,62.714,297.3998,6.433e-05,7.36e-06,0.0,0 STARLINK-3124,1 49456U 21104BA  24010.42287126  .00000736  00000-0  64330-4 0  9991,2 49456  53.2153 162.3297 0001432  62.7140 297.3998 15.08841076119625,6917.877,95.437,540.733,538.751,0.0
49456.0,STARLINK-3124,PAYLOAD,2024-01-10 16:30:29,15.08811714,0.000148,53.2157,161.1385,76.5733,283.5424,0.00045429,6.944e-05,0.0,0 STARLINK-3124,1 49456U 21104BA  24010.68783752  .00006944  00000-0  45429-3 0  9999,2 49456  53.2157 161.1385 0001480  76.5733 283.5424 15.08811714120739,6917.967,95.439,540.856,538.808,0.0
